0 ARIANE 3 DEB
1 27026U 88081J   13280.38814662 -.00000341  00000-0 -27866-2 0  7229
2 27026 007.2964 216.4639 7141158 274.3857 347.2948 02.30468398158757
0 ARIANE 3 DEB
1 27026U 88081J   13293.36285751 -.00000316  00000-0 -24971-2 0  7240
2 27026 007.2923 211.1632 7136580 284.5676 312.0780 02.30465498159058
0 ARIANE 3 DEB
1 27026U 88081J   13294.22197245 -.00000319  00000-0 -23922-2 0  7255
2 27026 007.2922 210.8169 7136360 285.2358 304.8635 02.30466643159072
